{
    "links": {
        "self": "http://www.neowsapp.com/rest/v1/neo/3943379?api_key=iIulBulltgU6a56xZRHN4H3l9WmuAYTsLGpBGhQ2"
    },
    "id": "3943379",
    "neo_reference_id": "3943379",
    "name": "(2019 YP2)",
    "designation": "2019 YP2",
    "nasa_jpl_url": "http://ssd.jpl.nasa.gov/sbdb.cgi?sstr=3943379",
    "absolute_magnitude_h": 21.8,
    "estimated_diameter": {
        "kilometers": {
            "estimated_diameter_min": 0.1160259082,
            "estimated_diameter_max": 0.2594418179
        },
        "meters": {
            "estimated_diameter_min": 116.0259082094,
            "estimated_diameter_max": 259.4418179074
        },
        "miles": {
            "estimated_diameter_min": 0.0720951346,
            "estimated_diameter_max": 0.1612096218
        },
        "feet": {
            "estimated_diameter_min": 380.6624406898,
            "estimated_diameter_max": 851.1870938635
        }
    },
    "is_potentially_hazardous_asteroid": false,
    "close_approach_data": [
        {
            "close_approach_date": "2019-12-20",
            "close_approach_date_full": "2019-Dec-20 18:06",
            "epoch_date_close_approach": 1576865160000,
            "relative_velocity": {
                "kilometers_per_second": "18.8648438213",
                "kilometers_per_hour": "67913.4377565284",
                "miles_per_hour": "42198.7691437718"
            },
            "miss_distance": {
                "astronomical": "0.2766471175",
                "lunar": "107.6157287075",
                "kilometers": "41385819.519639725",
                "miles": "25715955.784789205"
            },
            "orbiting_body": "Earth"
        }
    ],
    "orbital_data": {
        "orbit_id": "6",
        "orbit_determination_date": "2020-01-08 06:23:06",
        "first_observation_date": "2019-12-21",
        "last_observation_date": "2020-01-05",
        "data_arc_in_days": 15,
        "observations_used": 62,
        "orbit_uncertainty": "7",
        "minimum_orbit_intersection": ".273378",
        "jupiter_tisserand_invariant": "4.321",
        "epoch_osculation": "2459000.5",
        "eccentricity": ".2008917780159206",
        "semi_major_axis": "1.497785390475475",
        "inclination": "36.3317639615218",
        "ascending_node_longitude": "92.72724478007019",
        "orbital_period": "669.5342713130553",
        "perihelion_distance": "1.196892620296587",
        "perihelion_argument": "312.9114711382961",
        "aphelion_distance": "1.798678160654363",
        "perihelion_time": "2458789.111640804998",
        "mean_anomaly": "113.6608125540127",
        "mean_motion": ".5376871885795882",
        "equinox": "J2000",
        "orbit_class": {
            "orbit_class_type": "AMO",
            "orbit_class_description": "Near-Earth asteroid orbits similar to that of 1221 Amor",
            "orbit_class_range": "1.017 AU < q (perihelion) < 1.3 AU"
        }
    },
    "is_sentry_object": false
}